CORAL                   
1 67685U 98067YB  26061.38181274  .00046607  00000+0  77682-3 0  9996
2 67685  51.6315 108.1094 0011582 157.7573 202.3921 15.51449802  3652
ISS OBJECT YC           
1 67686U 98067YC  26061.37845320  .00051991  00000+0  85445-3 0  9993
2 67686  51.6316 108.0894 0007717 125.5885 234.5825 15.51837466  3652
LEOPARD                 
1 67687U 98067YD  26061.64081302  .00041373  00000+0  69517-3 0  9991
2 67687  51.6316 106.8408 0007695 130.3148 229.8515 15.51318584  3615
ISS OBJECT YE           
1 67688U 98067YE  26061.50874384  .00050750  00000+0  83946-3 0  9998
2 67688  51.6317 107.4591 0007639 126.6437 233.5256 15.51667522  3594
PRC TEST SPACECRAFT 4   
1 67689U 26024A   26062.19626325  .00000148  00000+0  38581-4 0  9991
2 67689  49.9858  53.2530 0006118 335.1208  24.9438 14.91681990  3615
CZ-2F R/B               
1 67690U 26024B   26062.12461630  .00020613  00000+0  37910-3 0  9995
2 67690  49.9874  47.5182 0175112 247.6669 110.5647 15.34029038  3681
CZ-2F DEB               
1 67691U 26024C   26062.16453476  .01101095  10863-4  76488-3 0  9990
2 67691  49.9036  39.8819 0164358 261.6013  96.6309 15.92866426  3775
CZ-2F DEB               
1 67692U 26024D   26062.18469519  .00232314  00000+0  42106-2 0  9992
2 67692  50.3177  50.6045 0241311 254.4710 102.9490 15.22537717  3637
STARLINK-36748          
1 67693U 26025A   26061.87153398  .00214417  00000+0  13994-2 0  9991
2 67693  97.2847 173.0670 0001449  78.4582 281.6846 15.75242960  4860
STARLINK-36753          
1 67694U 26025B   26061.86376926  .00197088  00000+0  12892-2 0  9995
2 67694  97.2850 173.0767 0000937  93.0151 267.1221 15.75239969  4870
STARLINK-36750          
1 67695U 26025C   26062.15964703  .00267116  00000+0  13464-2 0  9991
2 67695  97.2842 173.4408 0001341 123.5724 236.5672 15.80922967  4911
STARLINK-36401          
1 67696U 26025D   26062.16668981  .00090545  00000+0  60291-3 0  9993
2 67696  97.2853 173.4299 0001213  75.7376 279.0083 15.75136272  4807
